{
  "type": "FeatureCollection",
  "features": [
    {
      "type": "Feature",
      "properties": {
        "norad_id": 34492,
        "name": "IRIDIUM 33 DEB",
        "group": "iridium-33-debris",
        "lat": 71.27991594609877,
        "lon": 141.4533662019637,
        "alt_km": 839.092085978341,
        "timestamp": "2025-12-19T08:58:49.722046+00:00",
        "meta_object_name": "IRIDIUM 33 DEB",
        "meta_object_id": "1997-051GH",
        "meta_epoch": "2025-12-18T09:36:31.167936",
        "meta_mean_motion": 14.25834729,
        "meta_eccentricity": 0.01887299,
        "meta_inclination": 86.4707,
        "meta_ra_of_asc_node": 332.3402,
        "meta_arg_of_pericenter": 219.7976,
        "meta_mean_anomaly": 295.0845,
        "meta_ephemeris_type": 0,
        "meta_classification_type": "U",
        "meta_norad_cat_id": 34492,
        "meta_element_set_no": 999,
        "meta_rev_at_epoch": 85139,
        "meta_bstar": 0.0028886567,
        "meta_mean_motion_dot": 8.305e-05,
        "meta_mean_motion_ddot": 0,
        "tle_line1": "1 34492U 97051GH  25352.40036074  .00008305  00000+0  28887-2 0  9995",
        "tle_line2": "2 34492  86.4707 332.3402 0188729 219.7976 295.0845 14.25834729851393"
      },
      "geometry": {
        "type": "Point",
        "coordinates": [
          141.4533662019637,
          71.27991594609877
        ]
      }
    },
    {
      "type": "Feature",
      "properties": {
        "norad_id": 34497,
        "name": "IRIDIUM 33 DEB",
        "group": "iridium-33-debris",
        "lat": 29.257912325735326,
        "lon": 51.65746016322312,
        "alt_km": 780.5987234323184,
        "timestamp": "2025-12-19T08:58:49.722056+00:00",
        "meta_object_name": "IRIDIUM 33 DEB",
        "meta_object_id": "1997-051GN",
        "meta_epoch": "2025-12-18T04:30:11.149056",
        "meta_mean_motion": 14.27469284,
        "meta_eccentricity": 0.00783512,
        "meta_inclination": 86.2772,
        "meta_ra_of_asc_node": 50.074,
        "meta_arg_of_pericenter": 321.7487,
        "meta_mean_anomaly": 93.0567,
        "meta_ephemeris_type": 0,
        "meta_classification_type": "U",
        "meta_norad_cat_id": 34497,
        "meta_element_set_no": 999,
        "meta_rev_at_epoch": 86961,
        "meta_bstar": 0.00048701444,
        "meta_mean_motion_dot": 1.253e-05,
        "meta_mean_motion_ddot": 0,
        "tle_line1": "1 34497U 97051GN  25352.18762904  .00001253  00000+0  48701-3 0  9996",
        "tle_line2": "2 34497  86.2772  50.0740 0078351 321.7487  93.0567 14.27469284869610"
      },
      "geometry": {
        "type": "Point",
        "coordinates": [
          51.65746016322312,
          29.257912325735326
        ]
      }
    },
    {
      "type": "Feature",
      "properties": {
        "norad_id": 34508,
        "name": "IRIDIUM 33 DEB",
        "group": "iridium-33-debris",
        "lat": 85.87122747896979,
        "lon": 161.3769804225304,
        "alt_km": 734.6924434725561,
        "timestamp": "2025-12-19T08:58:49.722067+00:00",
        "meta_object_name": "IRIDIUM 33 DEB",
        "meta_object_id": "1997-051GZ",
        "meta_epoch": "2025-12-18T19:12:54.851040",
        "meta_mean_motion": 14.38471932,
        "meta_eccentricity": 0.00664842,
        "meta_inclination": 86.3709,
        "meta_ra_of_asc_node": 100.074,
        "meta_arg_of_pericenter": 153.504,
        "meta_mean_anomaly": 206.9584,
        "meta_ephemeris_type": 0,
        "meta_classification_type": "U",
        "meta_norad_cat_id": 34508,
        "meta_element_set_no": 999,
        "meta_rev_at_epoch": 87396,
        "meta_bstar": 0.00089500959,
        "meta_mean_motion_dot": 2.823e-05,
        "meta_mean_motion_ddot": 0,
        "tle_line1": "1 34508U 97051GZ  25352.80063485  .00002823  00000+0  89501-3 0  9993",
        "tle_line2": "2 34508  86.3709 100.0740 0066484 153.5040 206.9584 14.38471932873962"
      },
      "geometry": {
        "type": "Point",
        "coordinates": [
          161.3769804225304,
          85.87122747896979
        ]
      }
    },
    {
      "type": "Feature",
      "properties": {
        "norad_id": 34521,
        "name": "IRIDIUM 33 DEB",
        "group": "iridium-33-debris",
        "lat": 38.53203604911627,
        "lon": -155.26291642632071,
        "alt_km": 678.2162497651689,
        "timestamp": "2025-12-19T08:58:49.722077+00:00",
        "meta_object_name": "IRIDIUM 33 DEB",
        "meta_object_id": "1997-051HN",
        "meta_epoch": "2025-12-18T14:17:06.631296",
        "meta_mean_motion": 14.63413961,
        "meta_eccentricity": 0.00022735,
        "meta_inclination": 86.3793,
        "meta_ra_of_asc_node": 27.9703,
        "meta_arg_of_pericenter": 187.5039,
        "meta_mean_anomaly": 172.6139,
        "meta_ephemeris_type": 0,
        "meta_classification_type": "U",
        "meta_norad_cat_id": 34521,
        "meta_element_set_no": 999,
        "meta_rev_at_epoch": 88558,
        "meta_bstar": 0.00060542288,
        "meta_mean_motion_dot": 3.152e-05,
        "meta_mean_motion_ddot": 0,
        "tle_line1": "1 34521U 97051HN  25352.59521564  .00003152  00000+0  60542-3 0  9991",
        "tle_line2": "2 34521  86.3793  27.9703 0002273 187.5039 172.6139 14.63413961885589"
      },
      "geometry": {
        "type": "Point",
        "coordinates": [
          -155.26291642632071,
          38.53203604911627
        ]
      }
    },
    {
      "type": "Feature",
      "properties": {
        "norad_id": 34525,
        "name": "IRIDIUM 33 DEB",
        "group": "iridium-33-debris",
        "lat": -12.029126120914109,
        "lon": -135.2133138483683,
        "alt_km": 755.1452305157782,
        "timestamp": "2025-12-19T08:58:49.722087+00:00",
        "meta_object_name": "IRIDIUM 33 DEB",
        "meta_object_id": "1997-051HS",
        "meta_epoch": "2025-12-18T16:02:32.351136",
        "meta_mean_motion": 14.4291922,
        "meta_eccentricity": 0.00065219,
        "meta_inclination": 86.3723,
        "meta_ra_of_asc_node": 44.3133,
        "meta_arg_of_pericenter": 81.568,
        "meta_mean_anomaly": 46.5711,
        "meta_ephemeris_type": 0,
        "meta_classification_type": "U",
        "meta_norad_cat_id": 34525,
        "meta_element_set_no": 999,
        "meta_rev_at_epoch": 88173,
        "meta_bstar": 0.0002662308,
        "meta_mean_motion_dot": 9.09e-06,
        "meta_mean_motion_ddot": 0,
        "tle_line1": "1 34525U 97051HS  25352.66842999  .00000909  00000+0  26623-3 0  9990",
        "tle_line2": "2 34525  86.3723  44.3133 0006521  81.5680  46.5711 14.42919220881735"
      },
      "geometry": {
        "type": "Point",
        "coordinates": [
          -135.2133138483683,
          -12.029126120914109
        ]
      }
    },
    {
      "type": "Feature",
      "properties": {
        "norad_id": 34529,
        "name": "IRIDIUM 33 DEB",
        "group": "iridium-33-debris",
        "lat": 31.697933782523226,
        "lon": 34.834259670317905,
        "alt_km": 756.9864293081664,
        "timestamp": "2025-12-19T08:58:49.722098+00:00",
        "meta_object_name": "IRIDIUM 33 DEB",
        "meta_object_id": "1997-051HW",
        "meta_epoch": "2025-12-18T14:29:46.495968",
        "meta_mean_motion": 14.40620248,
        "meta_eccentricity": 0.00055161,
        "meta_inclination": 86.3637,
        "meta_ra_of_asc_node": 32.9118,
        "meta_arg_of_pericenter": 159.4672,
        "meta_mean_anomaly": 200.675,
        "meta_ephemeris_type": 0,
        "meta_classification_type": "U",
        "meta_norad_cat_id": 34529,
        "meta_element_set_no": 999,
        "meta_rev_at_epoch": 88226,
        "meta_bstar": 8.9957173e-05,
        "meta_mean_motion_dot": 3.07e-06,
        "meta_mean_motion_ddot": 0,
        "tle_line1": "1 34529U 97051HW  25352.60401037  .00000307  00000+0  89957-4 0  9994",
        "tle_line2": "2 34529  86.3637  32.9118 0005516 159.4672 200.6750 14.40620248882260"
      },
      "geometry": {
        "type": "Point",
        "coordinates": [
          34.834259670317905,
          31.697933782523226
        ]
      }
    },
    {
      "type": "Feature",
      "properties": {
        "norad_id": 34538,
        "name": "IRIDIUM 33 DEB",
        "group": "iridium-33-debris",
        "lat": -81.427249015908,
        "lon": -22.945477340369926,
        "alt_km": 736.6688838130722,
        "timestamp": "2025-12-19T08:58:49.722108+00:00",
        "meta_object_name": "IRIDIUM 33 DEB",
        "meta_object_id": "1997-051JF",
        "meta_epoch": "2025-12-18T18:39:10.772064",
        "meta_mean_motion": 14.42682193,
        "meta_eccentricity": 0.00322699,
        "meta_inclination": 86.2762,
        "meta_ra_of_asc_node": 2.9117,
        "meta_arg_of_pericenter": 307.2305,
        "meta_mean_anomaly": 112.1518,
        "meta_ephemeris_type": 0,
        "meta_classification_type": "U",
        "meta_norad_cat_id": 34538,
        "meta_element_set_no": 999,
        "meta_rev_at_epoch": 87843,
        "meta_bstar": 0.00069403531,
        "meta_mean_motion_dot": 2.341e-05,
        "meta_mean_motion_ddot": 0,
        "tle_line1": "1 34538U 97051JF  25352.77720801  .00002341  00000+0  69404-3 0  9999",
        "tle_line2": "2 34538  86.2762   2.9117 0032269 307.2305 112.1518 14.42682193878437"
      },
      "geometry": {
        "type": "Point",
        "coordinates": [
          -22.945477340369926,
          -81.427249015908
        ]
      }
    }
  ]
}